{
  "type": "FeatureCollection",
  "features": [
    {
      "type": "Feature",
      "properties": {
        "norad_id": 44333,
        "name": "AT&T T-16",
        "group": "intelsat",
        "lat": 0.026332886325145185,
        "lon": 119.3323705880142,
        "alt_km": 35782.4519548389,
        "timestamp": "2025-12-16T08:59:42.827010+00:00",
        "meta_object_name": "AT&T T-16",
        "meta_object_id": "2019-034A",
        "meta_epoch": "2025-12-15T09:29:00.650688",
        "meta_mean_motion": 1.00274124,
        "meta_eccentricity": 8.334e-05,
        "meta_inclination": 0.024,
        "meta_ra_of_asc_node": 67.0512,
        "meta_arg_of_pericenter": 83.7353,
        "meta_mean_anomaly": 334.9128,
        "meta_ephemeris_type": 0,
        "meta_classification_type": "U",
        "meta_norad_cat_id": 44333,
        "meta_element_set_no": 999,
        "meta_rev_at_epoch": 2379,
        "meta_bstar": 0,
        "meta_mean_motion_dot": -9.4e-07,
        "meta_mean_motion_ddot": 0,
        "tle_line1": "1 44333U 19034A   25349.39514642 -.00000094  00000+0  00000+0 0  9993",
        "tle_line2": "2 44333   0.0240  67.0512 0000833  83.7353 334.9128  1.00274124 23791"
      },
      "geometry": {
        "type": "Point",
        "coordinates": [
          119.3323705880142,
          0.026332886325145185
        ]
      }
    },
    {
      "type": "Feature",
      "properties": {
        "norad_id": 44476,
        "name": "INTELSAT 39 (IS-39)",
        "group": "intelsat",
        "lat": -0.02924384962187172,
        "lon": -77.85715320273525,
        "alt_km": 35789.90739652926,
        "timestamp": "2025-12-16T08:59:42.827022+00:00",
        "meta_object_name": "INTELSAT 39 (IS-39)",
        "meta_object_id": "2019-049B",
        "meta_epoch": "2025-12-15T22:14:37.836384",
        "meta_mean_motion": 1.00272405,
        "meta_eccentricity": 0.00013119,
        "meta_inclination": 0.0175,
        "meta_ra_of_asc_node": 322.8511,
        "meta_arg_of_pericenter": 182.5588,
        "meta_mean_anomaly": 335.0211,
        "meta_ephemeris_type": 0,
        "meta_classification_type": "U",
        "meta_norad_cat_id": 44476,
        "meta_element_set_no": 999,
        "meta_rev_at_epoch": 2329,
        "meta_bstar": 0,
        "meta_mean_motion_dot": 5.6e-07,
        "meta_mean_motion_ddot": 0,
        "tle_line1": "1 44476U 19049B   25349.92682681  .00000056  00000+0  00000+0 0  9992",
        "tle_line2": "2 44476   0.0175 322.8511 0001311 182.5588 335.0211  1.00272405 23297"
      },
      "geometry": {
        "type": "Point",
        "coordinates": [
          -77.85715320273525,
          -0.02924384962187172
        ]
      }
    },
    {
      "type": "Feature",
      "properties": {
        "norad_id": 46114,
        "name": "GALAXY 30 (G-30)",
        "group": "intelsat",
        "lat": 0.03932097497078788,
        "lon": 95.18071804770722,
        "alt_km": 35794.67754829383,
        "timestamp": "2025-12-16T08:59:42.827035+00:00",
        "meta_object_name": "GALAXY 30 (G-30)",
        "meta_object_id": "2020-056C",
        "meta_epoch": "2025-12-15T21:20:57.976224",
        "meta_mean_motion": 1.00271624,
        "meta_eccentricity": 0.00020781,
        "meta_inclination": 0.0181,
        "meta_ra_of_asc_node": 4.1804,
        "meta_arg_of_pericenter": 258.2613,
        "meta_mean_anomaly": 17.591,
        "meta_ephemeris_type": 0,
        "meta_classification_type": "U",
        "meta_norad_cat_id": 46114,
        "meta_element_set_no": 999,
        "meta_rev_at_epoch": 1945,
        "meta_bstar": 0,
        "meta_mean_motion_dot": 5.9e-07,
        "meta_mean_motion_ddot": 0,
        "tle_line1": "1 46114U 20056C   25349.88955991  .00000059  00000+0  00000+0 0  9998",
        "tle_line2": "2 46114   0.0181   4.1804 0002078 258.2613  17.5910  1.00271624 19454"
      },
      "geometry": {
        "type": "Point",
        "coordinates": [
          95.18071804770722,
          0.03932097497078788
        ]
      }
    },
    {
      "type": "Feature",
      "properties": {
        "norad_id": 54026,
        "name": "GALAXY 33 (G-33)",
        "group": "intelsat",
        "lat": 0.035397379129801815,
        "lon": 87.18832906173152,
        "alt_km": 35793.2687018297,
        "timestamp": "2025-12-16T08:59:42.827047+00:00",
        "meta_object_name": "GALAXY 33 (G-33)",
        "meta_object_id": "2022-128A",
        "meta_epoch": "2025-12-15T12:45:19.351872",
        "meta_mean_motion": 1.00272882,
        "meta_eccentricity": 0.00018072,
        "meta_inclination": 0.0131,
        "meta_ra_of_asc_node": 342.9246,
        "meta_arg_of_pericenter": 275.9027,
        "meta_mean_anomaly": 243.9429,
        "meta_ephemeris_type": 0,
        "meta_classification_type": "U",
        "meta_norad_cat_id": 54026,
        "meta_element_set_no": 999,
        "meta_rev_at_epoch": 1190,
        "meta_bstar": 0,
        "meta_mean_motion_dot": 1e-06,
        "meta_mean_motion_ddot": 0,
        "tle_line1": "1 54026U 22128A   25349.53147398  .00000100  00000+0  00000+0 0  9994",
        "tle_line2": "2 54026   0.0131 342.9246 0001807 275.9027 243.9429  1.00272882 11906"
      },
      "geometry": {
        "type": "Point",
        "coordinates": [
          87.18832906173152,
          0.035397379129801815
        ]
      }
    },
    {
      "type": "Feature",
      "properties": {
        "norad_id": 54027,
        "name": "GALAXY 34 (G-34)",
        "group": "intelsat",
        "lat": 0.04260119528679754,
        "lon": 91.25051352423125,
        "alt_km": 35792.05322120474,
        "timestamp": "2025-12-16T08:59:42.827059+00:00",
        "meta_object_name": "GALAXY 34 (G-34)",
        "meta_object_id": "2022-128B",
        "meta_epoch": "2025-12-15T15:38:33.689184",
        "meta_mean_motion": 1.00271096,
        "meta_eccentricity": 0.0001421,
        "meta_inclination": 0.0249,
        "meta_ra_of_asc_node": 330.7598,
        "meta_arg_of_pericenter": 286.3955,
        "meta_mean_anomaly": 293.1117,
        "meta_ephemeris_type": 0,
        "meta_classification_type": "U",
        "meta_norad_cat_id": 54027,
        "meta_element_set_no": 999,
        "meta_rev_at_epoch": 1207,
        "meta_bstar": 0,
        "meta_mean_motion_dot": 0,
        "meta_mean_motion_ddot": 0,
        "tle_line1": "1 54027U 22128B   25349.65177881  .00000000  00000+0  00000+0 0  9997",
        "tle_line2": "2 54027   0.0249 330.7598 0001421 286.3955 293.1117  1.00271096 12076"
      },
      "geometry": {
        "type": "Point",
        "coordinates": [
          91.25051352423125,
          0.04260119528679754
        ]
      }
    },
    {
      "type": "Feature",
      "properties": {
        "norad_id": 54243,
        "name": "GALAXY 31 (G-31)",
        "group": "intelsat",
        "lat": 0.034784721100224514,
        "lon": 99.1744280690562,
        "alt_km": 35792.34797226738,
        "timestamp": "2025-12-16T08:59:42.827071+00:00",
        "meta_object_name": "GALAXY 31 (G-31)",
        "meta_object_id": "2022-153A",
        "meta_epoch": "2025-12-15T15:08:47.593824",
        "meta_mean_motion": 1.0027139,
        "meta_eccentricity": 0.00014655,
        "meta_inclination": 0.0143,
        "meta_ra_of_asc_node": 6.9091,
        "meta_arg_of_pericenter": 272.4598,
        "meta_mean_anomaly": 271.3548,
        "meta_ephemeris_type": 0,
        "meta_classification_type": "U",
        "meta_norad_cat_id": 54243,
        "meta_element_set_no": 999,
        "meta_rev_at_epoch": 529,
        "meta_bstar": 0,
        "meta_mean_motion_dot": 0,
        "meta_mean_motion_ddot": 0,
        "tle_line1": "1 54243U 22153A   25349.63110641  .00000000  00000+0  00000+0 0  9994",
        "tle_line2": "2 54243   0.0143   6.9091 0001465 272.4598 271.3548  1.00271390  5295"
      },
      "geometry": {
        "type": "Point",
        "coordinates": [
          99.1744280690562,
          0.034784721100224514
        ]
      }
    },
    {
      "type": "Feature",
      "properties": {
        "norad_id": 54244,
        "name": "GALAXY 32 (G-32)",
        "group": "intelsat",
        "lat": 0.01509268641899478,
        "lon": 129.18784723179093,
        "alt_km": 35796.849161253325,
        "timestamp": "2025-12-16T08:59:42.827083+00:00",
        "meta_object_name": "GALAXY 32 (G-32)",
        "meta_object_id": "2022-153B",
        "meta_epoch": "2025-12-15T09:31:52.876128",
        "meta_mean_motion": 1.00271814,
        "meta_eccentricity": 0.00025704,
        "meta_inclination": 0.009,
        "meta_ra_of_asc_node": 336.4403,
        "meta_arg_of_pericenter": 340.1311,
        "meta_mean_anomaly": 179.7028,
        "meta_ephemeris_type": 0,
        "meta_classification_type": "U",
        "meta_norad_cat_id": 54244,
        "meta_element_set_no": 999,
        "meta_rev_at_epoch": 1130,
        "meta_bstar": 0,
        "meta_mean_motion_dot": -1.53e-06,
        "meta_mean_motion_ddot": 0,
        "tle_line1": "1 54244U 22153B   25349.39713977 -.00000153  00000+0  00000+0 0  9999",
        "tle_line2": "2 54244   0.0090 336.4403 0002570 340.1311 179.7028  1.00271814 11303"
      },
      "geometry": {
        "type": "Point",
        "coordinates": [
          129.18784723179093,
          0.01509268641899478
        ]
      }
    }
  ]
}